<?xml version="1.0" encoding="utf-8"?>
<gpx xmlns="http://www.topografix.com/GPX/1/1" xmlns:xsi="http://www.w3.org/2001/XMLSchema-instance" version="1.1" creator="Hereford overnight brief" xsi:schemaLocation="http://www.topografix.com/GPX/1/1 http://www.topografix.com/GPX/1/1/gpx.xsd">
  <metadata>
    <name>Hereford overnight · full loop Sep 21–22 2026</name>
    <desc>131.8 km</desc>
  </metadata>
  <trk>
    <name>Hereford overnight · full loop Sep 21–22 2026</name>
    <type>cycling</type>
    <trkseg>
      <trkpt lat="45.397157" lon="-71.898338"/>
      <trkpt lat="45.396437" lon="-71.899355"/>
      <trkpt lat="45.396145" lon="-71.900581"/>
      <trkpt lat="45.395755" lon="-71.902842"/>
      <trkpt lat="45.395701" lon="-71.903858"/>
      <trkpt lat="45.395533" lon="-71.904758"/>
      <trkpt lat="45.395291" lon="-71.906412"/>
      <trkpt lat="45.394978" lon="-71.907605"/>
      <trkpt lat="45.394847" lon="-71.908831"/>
      <trkpt lat="45.394654" lon="-71.910252"/>
      <trkpt lat="45.394386" lon="-71.911289"/>
      <trkpt lat="45.394202" lon="-71.912641"/>
      <trkpt lat="45.393955" lon="-71.914118"/>
      <trkpt lat="45.393971" lon="-71.915027"/>
      <trkpt lat="45.393591" lon="-71.916952"/>
      <trkpt lat="45.393582" lon="-71.917711"/>
      <trkpt lat="45.393607" lon="-71.919029"/>
      <trkpt lat="45.394203" lon="-71.920789"/>
      <trkpt lat="45.394296" lon="-71.921369"/>
      <trkpt lat="45.394909" lon="-71.922700"/>
      <trkpt lat="45.396391" lon="-71.925019"/>
      <trkpt lat="45.396735" lon="-71.925571"/>
      <trkpt lat="45.396931" lon="-71.925936"/>
      <trkpt lat="45.397243" lon="-71.926719"/>
      <trkpt lat="45.397427" lon="-71.927983"/>
      <trkpt lat="45.397708" lon="-71.929129"/>
      <trkpt lat="45.397664" lon="-71.930433"/>
      <trkpt lat="45.396964" lon="-71.933857"/>
      <trkpt lat="45.396936" lon="-71.933995"/>
      <trkpt lat="45.395644" lon="-71.940060"/>
      <trkpt lat="45.395743" lon="-71.940059"/>
      <trkpt lat="45.395803" lon="-71.940062"/>
      <trkpt lat="45.395816" lon="-71.940191"/>
      <trkpt lat="45.395233" lon="-71.942998"/>
      <trkpt lat="45.395239" lon="-71.943058"/>
      <trkpt lat="45.395261" lon="-71.943108"/>
      <trkpt lat="45.395175" lon="-71.943316"/>
      <trkpt lat="45.394659" lon="-71.945955"/>
      <trkpt lat="45.394601" lon="-71.946230"/>
      <trkpt lat="45.394352" lon="-71.947224"/>
      <trkpt lat="45.393759" lon="-71.948663"/>
      <trkpt lat="45.393123" lon="-71.949600"/>
      <trkpt lat="45.392510" lon="-71.950227"/>
      <trkpt lat="45.391776" lon="-71.950979"/>
      <trkpt lat="45.390864" lon="-71.951890"/>
      <trkpt lat="45.389827" lon="-71.952718"/>
      <trkpt lat="45.389466" lon="-71.953159"/>
      <trkpt lat="45.389189" lon="-71.953192"/>
      <trkpt lat="45.388319" lon="-71.953188"/>
      <trkpt lat="45.387747" lon="-71.954222"/>
      <trkpt lat="45.387287" lon="-71.955476"/>
      <trkpt lat="45.386853" lon="-71.956609"/>
      <trkpt lat="45.385978" lon="-71.957564"/>
      <trkpt lat="45.385271" lon="-71.958159"/>
      <trkpt lat="45.384454" lon="-71.958792"/>
      <trkpt lat="45.383586" lon="-71.959197"/>
      <trkpt lat="45.382814" lon="-71.959602"/>
      <trkpt lat="45.381903" lon="-71.960416"/>
      <trkpt lat="45.381196" lon="-71.961043"/>
      <trkpt lat="45.380258" lon="-71.961498"/>
      <trkpt lat="45.379265" lon="-71.961842"/>
      <trkpt lat="45.378325" lon="-71.961980"/>
      <trkpt lat="45.377589" lon="-71.961973"/>
      <trkpt lat="45.376596" lon="-71.961708"/>
      <trkpt lat="45.375303" lon="-71.962018"/>
      <trkpt lat="45.375220" lon="-71.961118"/>
      <trkpt lat="45.374552" lon="-71.960834"/>
      <trkpt lat="45.373764" lon="-71.962136"/>
      <trkpt lat="45.373251" lon="-71.962707"/>
      <trkpt lat="45.372861" lon="-71.962257"/>
      <trkpt lat="45.371590" lon="-71.963111"/>
      <trkpt lat="45.370791" lon="-71.964100"/>
      <trkpt lat="45.370637" lon="-71.964266"/>
      <trkpt lat="45.369621" lon="-71.965286"/>
      <trkpt lat="45.368747" lon="-71.965948"/>
      <trkpt lat="45.367869" lon="-71.965993"/>
      <trkpt lat="45.367374" lon="-71.965958"/>
      <trkpt lat="45.365678" lon="-71.966344"/>
      <trkpt lat="45.365138" lon="-71.966520"/>
      <trkpt lat="45.362719" lon="-71.967237"/>
      <trkpt lat="45.362605" lon="-71.967276"/>
      <trkpt lat="45.362259" lon="-71.967420"/>
      <trkpt lat="45.361836" lon="-71.967786"/>
      <trkpt lat="45.361198" lon="-71.968678"/>
      <trkpt lat="45.359570" lon="-71.971053"/>
      <trkpt lat="45.359385" lon="-71.971337"/>
      <trkpt lat="45.359113" lon="-71.971753"/>
      <trkpt lat="45.358713" lon="-71.972814"/>
      <trkpt lat="45.358285" lon="-71.974571"/>
      <trkpt lat="45.358114" lon="-71.975316"/>
      <trkpt lat="45.357432" lon="-71.978373"/>
      <trkpt lat="45.357407" lon="-71.978527"/>
      <trkpt lat="45.357070" lon="-71.980265"/>
      <trkpt lat="45.356988" lon="-71.980596"/>
      <trkpt lat="45.356226" lon="-71.982316"/>
      <trkpt lat="45.356026" lon="-71.982756"/>
      <trkpt lat="45.355477" lon="-71.984187"/>
      <trkpt lat="45.354659" lon="-71.986117"/>
      <trkpt lat="45.354351" lon="-71.986763"/>
      <trkpt lat="45.353852" lon="-71.987257"/>
      <trkpt lat="45.352807" lon="-71.987900"/>
      <trkpt lat="45.352012" lon="-71.988419"/>
      <trkpt lat="45.351022" lon="-71.989063"/>
      <trkpt lat="45.350373" lon="-71.989496"/>
      <trkpt lat="45.349678" lon="-71.990058"/>
      <trkpt lat="45.348840" lon="-71.991329"/>
      <trkpt lat="45.348523" lon="-71.991320"/>
      <trkpt lat="45.348385" lon="-71.989988"/>
      <trkpt lat="45.348052" lon="-71.988601"/>
      <trkpt lat="45.347404" lon="-71.987420"/>
      <trkpt lat="45.346729" lon="-71.986495"/>
      <trkpt lat="45.346094" lon="-71.985628"/>
      <trkpt lat="45.345494" lon="-71.984715"/>
      <trkpt lat="45.344972" lon="-71.983688"/>
      <trkpt lat="45.344455" lon="-71.982454"/>
      <trkpt lat="45.344032" lon="-71.981425"/>
      <trkpt lat="45.343366" lon="-71.980396"/>
      <trkpt lat="45.342440" lon="-71.979765"/>
      <trkpt lat="45.340753" lon="-71.979551"/>
      <trkpt lat="45.338755" lon="-71.979395"/>
      <trkpt lat="45.334599" lon="-71.979072"/>
      <trkpt lat="45.334584" lon="-71.979070"/>
      <trkpt lat="45.333715" lon="-71.979008"/>
      <trkpt lat="45.333651" lon="-71.979030"/>
      <trkpt lat="45.333581" lon="-71.979027"/>
      <trkpt lat="45.333521" lon="-71.979011"/>
      <trkpt lat="45.333390" lon="-71.978962"/>
      <trkpt lat="45.333060" lon="-71.979005"/>
      <trkpt lat="45.331770" lon="-71.980111"/>
      <trkpt lat="45.329189" lon="-71.982868"/>
      <trkpt lat="45.327838" lon="-71.984338"/>
      <trkpt lat="45.327261" lon="-71.984960"/>
      <trkpt lat="45.326975" lon="-71.985237"/>
      <trkpt lat="45.326730" lon="-71.985453"/>
      <trkpt lat="45.326301" lon="-71.985784"/>
      <trkpt lat="45.326102" lon="-71.985927"/>
      <trkpt lat="45.325885" lon="-71.986070"/>
      <trkpt lat="45.324402" lon="-71.986813"/>
      <trkpt lat="45.322572" lon="-71.987632"/>
      <trkpt lat="45.321862" lon="-71.987970"/>
      <trkpt lat="45.318880" lon="-71.989432"/>
      <trkpt lat="45.318235" lon="-71.989760"/>
      <trkpt lat="45.318004" lon="-71.989897"/>
      <trkpt lat="45.317553" lon="-71.990199"/>
      <trkpt lat="45.317347" lon="-71.990353"/>
      <trkpt lat="45.317081" lon="-71.990586"/>
      <trkpt lat="45.316682" lon="-71.990974"/>
      <trkpt lat="45.316320" lon="-71.991404"/>
      <trkpt lat="45.315681" lon="-71.992332"/>
      <trkpt lat="45.313652" lon="-71.992003"/>
      <trkpt lat="45.313301" lon="-71.991969"/>
      <trkpt lat="45.312873" lon="-71.991933"/>
      <trkpt lat="45.310370" lon="-71.991727"/>
      <trkpt lat="45.309887" lon="-71.991687"/>
      <trkpt lat="45.306036" lon="-71.991435"/>
      <trkpt lat="45.305482" lon="-71.991446"/>
      <trkpt lat="45.305168" lon="-71.991470"/>
      <trkpt lat="45.304064" lon="-71.991611"/>
      <trkpt lat="45.303365" lon="-71.991619"/>
      <trkpt lat="45.303024" lon="-71.991583"/>
      <trkpt lat="45.302731" lon="-71.991508"/>
      <trkpt lat="45.300540" lon="-71.990392"/>
      <trkpt lat="45.300081" lon="-71.990143"/>
      <trkpt lat="45.299751" lon="-71.990014"/>
      <trkpt lat="45.299353" lon="-71.989920"/>
      <trkpt lat="45.298475" lon="-71.989671"/>
      <trkpt lat="45.297930" lon="-71.989543"/>
      <trkpt lat="45.295493" lon="-71.988968"/>
      <trkpt lat="45.295182" lon="-71.988825"/>
      <trkpt lat="45.294985" lon="-71.988648"/>
      <trkpt lat="45.294895" lon="-71.988470"/>
      <trkpt lat="45.294092" lon="-71.986778"/>
      <trkpt lat="45.293941" lon="-71.986507"/>
      <trkpt lat="45.292973" lon="-71.985286"/>
      <trkpt lat="45.292029" lon="-71.984295"/>
      <trkpt lat="45.290645" lon="-71.985102"/>
      <trkpt lat="45.289782" lon="-71.985657"/>
      <trkpt lat="45.289351" lon="-71.985984"/>
      <trkpt lat="45.289153" lon="-71.986083"/>
      <trkpt lat="45.288214" lon="-71.986345"/>
      <trkpt lat="45.287066" lon="-71.986464"/>
      <trkpt lat="45.283514" lon="-71.989696"/>
      <trkpt lat="45.282050" lon="-71.991128"/>
      <trkpt lat="45.281896" lon="-71.991269"/>
      <trkpt lat="45.278592" lon="-71.992915"/>
      <trkpt lat="45.278218" lon="-71.993126"/>
      <trkpt lat="45.278079" lon="-71.993180"/>
      <trkpt lat="45.277964" lon="-71.993193"/>
      <trkpt lat="45.277847" lon="-71.993180"/>
      <trkpt lat="45.277695" lon="-71.993127"/>
      <trkpt lat="45.277275" lon="-71.992930"/>
      <trkpt lat="45.277166" lon="-71.992922"/>
      <trkpt lat="45.277062" lon="-71.992941"/>
      <trkpt lat="45.276285" lon="-71.993361"/>
      <trkpt lat="45.275818" lon="-71.994785"/>
      <trkpt lat="45.275235" lon="-71.996238"/>
      <trkpt lat="45.274630" lon="-71.996161"/>
      <trkpt lat="45.273732" lon="-71.996100"/>
      <trkpt lat="45.273560" lon="-71.994389"/>
      <trkpt lat="45.273583" lon="-71.993754"/>
      <trkpt lat="45.273649" lon="-71.991910"/>
      <trkpt lat="45.273709" lon="-71.989532"/>
      <trkpt lat="45.273712" lon="-71.987983"/>
      <trkpt lat="45.274525" lon="-71.986786"/>
      <trkpt lat="45.275207" lon="-71.985593"/>
      <trkpt lat="45.275308" lon="-71.985370"/>
      <trkpt lat="45.275370" lon="-71.985112"/>
      <trkpt lat="45.275654" lon="-71.982494"/>
      <trkpt lat="45.275741" lon="-71.981443"/>
      <trkpt lat="45.275819" lon="-71.980927"/>
      <trkpt lat="45.276342" lon="-71.978913"/>
      <trkpt lat="45.276551" lon="-71.978053"/>
      <trkpt lat="45.276850" lon="-71.975774"/>
      <trkpt lat="45.276938" lon="-71.974979"/>
      <trkpt lat="45.276973" lon="-71.974452"/>
      <trkpt lat="45.276402" lon="-71.973543"/>
      <trkpt lat="45.275494" lon="-71.973265"/>
      <trkpt lat="45.274631" lon="-71.974222"/>
      <trkpt lat="45.273787" lon="-71.974739"/>
      <trkpt lat="45.272934" lon="-71.975229"/>
      <trkpt lat="45.272127" lon="-71.975397"/>
      <trkpt lat="45.270402" lon="-71.974757"/>
      <trkpt lat="45.269593" lon="-71.974466"/>
      <trkpt lat="45.269068" lon="-71.974242"/>
      <trkpt lat="45.267912" lon="-71.973610"/>
      <trkpt lat="45.266665" lon="-71.973142"/>
      <trkpt lat="45.266519" lon="-71.973107"/>
      <trkpt lat="45.265685" lon="-71.973137"/>
      <trkpt lat="45.263781" lon="-71.973197"/>
      <trkpt lat="45.263707" lon="-71.973202"/>
      <trkpt lat="45.262491" lon="-71.973245"/>
      <trkpt lat="45.259957" lon="-71.972507"/>
      <trkpt lat="45.259928" lon="-71.972634"/>
      <trkpt lat="45.259917" lon="-71.974876"/>
      <trkpt lat="45.259954" lon="-71.976578"/>
      <trkpt lat="45.259989" lon="-71.977379"/>
      <trkpt lat="45.260061" lon="-71.978704"/>
      <trkpt lat="45.260227" lon="-71.981171"/>
      <trkpt lat="45.260230" lon="-71.981354"/>
      <trkpt lat="45.260214" lon="-71.981514"/>
      <trkpt lat="45.260100" lon="-71.981833"/>
      <trkpt lat="45.257677" lon="-71.982329"/>
      <trkpt lat="45.256248" lon="-71.982482"/>
      <trkpt lat="45.255414" lon="-71.982549"/>
      <trkpt lat="45.255290" lon="-71.982525"/>
      <trkpt lat="45.255227" lon="-71.982440"/>
      <trkpt lat="45.252033" lon="-71.981637"/>
      <trkpt lat="45.250230" lon="-71.981356"/>
      <trkpt lat="45.249966" lon="-71.981275"/>
      <trkpt lat="45.249959" lon="-71.980982"/>
      <trkpt lat="45.249929" lon="-71.980264"/>
      <trkpt lat="45.249920" lon="-71.980153"/>
      <trkpt lat="45.249838" lon="-71.980007"/>
      <trkpt lat="45.248771" lon="-71.980644"/>
      <trkpt lat="45.247939" lon="-71.981068"/>
      <trkpt lat="45.246893" lon="-71.981688"/>
      <trkpt lat="45.245844" lon="-71.982279"/>
      <trkpt lat="45.245104" lon="-71.982732"/>
      <trkpt lat="45.244437" lon="-71.983107"/>
      <trkpt lat="45.243671" lon="-71.983585"/>
      <trkpt lat="45.241882" lon="-71.984376"/>
      <trkpt lat="45.241646" lon="-71.984447"/>
      <trkpt lat="45.240909" lon="-71.984491"/>
      <trkpt lat="45.239920" lon="-71.984294"/>
      <trkpt lat="45.238616" lon="-71.983942"/>
      <trkpt lat="45.237884" lon="-71.983784"/>
      <trkpt lat="45.236762" lon="-71.983680"/>
      <trkpt lat="45.236040" lon="-71.983739"/>
      <trkpt lat="45.235118" lon="-71.983992"/>
      <trkpt lat="45.234057" lon="-71.984395"/>
      <trkpt lat="45.233324" lon="-71.984588"/>
      <trkpt lat="45.231111" lon="-71.985200"/>
      <trkpt lat="45.230963" lon="-71.985204"/>
      <trkpt lat="45.230499" lon="-71.985167"/>
      <trkpt lat="45.229346" lon="-71.984983"/>
      <trkpt lat="45.228271" lon="-71.984822"/>
      <trkpt lat="45.227561" lon="-71.984736"/>
      <trkpt lat="45.226914" lon="-71.984492"/>
      <trkpt lat="45.225899" lon="-71.984172"/>
      <trkpt lat="45.224881" lon="-71.984259"/>
      <trkpt lat="45.225152" lon="-71.982776"/>
      <trkpt lat="45.225460" lon="-71.982035"/>
      <trkpt lat="45.226019" lon="-71.981106"/>
      <trkpt lat="45.227654" lon="-71.979160"/>
      <trkpt lat="45.228047" lon="-71.978736"/>
      <trkpt lat="45.228167" lon="-71.978628"/>
      <trkpt lat="45.228387" lon="-71.976727"/>
      <trkpt lat="45.228590" lon="-71.975820"/>
      <trkpt lat="45.228652" lon="-71.974473"/>
      <trkpt lat="45.228506" lon="-71.973286"/>
      <trkpt lat="45.228363" lon="-71.970700"/>
      <trkpt lat="45.228342" lon="-71.969457"/>
      <trkpt lat="45.228275" lon="-71.966791"/>
      <trkpt lat="45.228064" lon="-71.960778"/>
      <trkpt lat="45.227939" lon="-71.958000"/>
      <trkpt lat="45.227926" lon="-71.957043"/>
      <trkpt lat="45.228159" lon="-71.954156"/>
      <trkpt lat="45.228390" lon="-71.951300"/>
      <trkpt lat="45.228395" lon="-71.951240"/>
      <trkpt lat="45.228852" lon="-71.945248"/>
      <trkpt lat="45.229264" lon="-71.940142"/>
      <trkpt lat="45.229265" lon="-71.940131"/>
      <trkpt lat="45.229391" lon="-71.938342"/>
      <trkpt lat="45.228617" lon="-71.938335"/>
      <trkpt lat="45.226338" lon="-71.938354"/>
      <trkpt lat="45.223845" lon="-71.938347"/>
      <trkpt lat="45.221207" lon="-71.938897"/>
      <trkpt lat="45.221198" lon="-71.938899"/>
      <trkpt lat="45.220575" lon="-71.938990"/>
      <trkpt lat="45.220228" lon="-71.939098"/>
      <trkpt lat="45.219992" lon="-71.939190"/>
      <trkpt lat="45.219289" lon="-71.939563"/>
      <trkpt lat="45.219022" lon="-71.939742"/>
      <trkpt lat="45.218800" lon="-71.939955"/>
      <trkpt lat="45.218505" lon="-71.940212"/>
      <trkpt lat="45.218352" lon="-71.940355"/>
      <trkpt lat="45.218100" lon="-71.940533"/>
      <trkpt lat="45.217861" lon="-71.940677"/>
      <trkpt lat="45.217404" lon="-71.940903"/>
      <trkpt lat="45.214378" lon="-71.942606"/>
      <trkpt lat="45.212303" lon="-71.943943"/>
      <trkpt lat="45.212236" lon="-71.943979"/>
      <trkpt lat="45.212063" lon="-71.944073"/>
      <trkpt lat="45.211884" lon="-71.944134"/>
      <trkpt lat="45.211653" lon="-71.944153"/>
      <trkpt lat="45.211525" lon="-71.944154"/>
      <trkpt lat="45.211447" lon="-71.944154"/>
      <trkpt lat="45.211228" lon="-71.944112"/>
      <trkpt lat="45.210537" lon="-71.943931"/>
      <trkpt lat="45.209338" lon="-71.943577"/>
      <trkpt lat="45.206373" lon="-71.942724"/>
      <trkpt lat="45.203633" lon="-71.941892"/>
      <trkpt lat="45.202941" lon="-71.941695"/>
      <trkpt lat="45.202541" lon="-71.941620"/>
      <trkpt lat="45.201908" lon="-71.941552"/>
      <trkpt lat="45.200092" lon="-71.941356"/>
      <trkpt lat="45.199656" lon="-71.941275"/>
      <trkpt lat="45.198823" lon="-71.941103"/>
      <trkpt lat="45.197559" lon="-71.940779"/>
      <trkpt lat="45.197170" lon="-71.940666"/>
      <trkpt lat="45.196940" lon="-71.940556"/>
      <trkpt lat="45.196397" lon="-71.940257"/>
      <trkpt lat="45.195794" lon="-71.939778"/>
      <trkpt lat="45.195061" lon="-71.939276"/>
      <trkpt lat="45.194000" lon="-71.938533"/>
      <trkpt lat="45.192843" lon="-71.937632"/>
      <trkpt lat="45.192747" lon="-71.937548"/>
      <trkpt lat="45.192657" lon="-71.937481"/>
      <trkpt lat="45.192584" lon="-71.937439"/>
      <trkpt lat="45.192487" lon="-71.937409"/>
      <trkpt lat="45.191795" lon="-71.937341"/>
      <trkpt lat="45.191545" lon="-71.937344"/>
      <trkpt lat="45.190885" lon="-71.937318"/>
      <trkpt lat="45.187946" lon="-71.937211"/>
      <trkpt lat="45.187601" lon="-71.937198"/>
      <trkpt lat="45.186546" lon="-71.937160"/>
      <trkpt lat="45.185866" lon="-71.936900"/>
      <trkpt lat="45.185154" lon="-71.936678"/>
      <trkpt lat="45.184359" lon="-71.936434"/>
      <trkpt lat="45.183273" lon="-71.936120"/>
      <trkpt lat="45.182723" lon="-71.936014"/>
      <trkpt lat="45.182744" lon="-71.935789"/>
      <trkpt lat="45.182766" lon="-71.935382"/>
      <trkpt lat="45.182786" lon="-71.934778"/>
      <trkpt lat="45.182779" lon="-71.934192"/>
      <trkpt lat="45.182828" lon="-71.933010"/>
      <trkpt lat="45.182870" lon="-71.932337"/>
      <trkpt lat="45.182831" lon="-71.926596"/>
      <trkpt lat="45.182829" lon="-71.925105"/>
      <trkpt lat="45.182829" lon="-71.924406"/>
      <trkpt lat="45.182866" lon="-71.923314"/>
      <trkpt lat="45.182853" lon="-71.922761"/>
      <trkpt lat="45.182832" lon="-71.922417"/>
      <trkpt lat="45.182805" lon="-71.922126"/>
      <trkpt lat="45.182757" lon="-71.921751"/>
      <trkpt lat="45.182727" lon="-71.921558"/>
      <trkpt lat="45.182687" lon="-71.921417"/>
      <trkpt lat="45.182177" lon="-71.920258"/>
      <trkpt lat="45.181868" lon="-71.919492"/>
      <trkpt lat="45.181234" lon="-71.917257"/>
      <trkpt lat="45.181130" lon="-71.916801"/>
      <trkpt lat="45.180929" lon="-71.915555"/>
      <trkpt lat="45.180578" lon="-71.912909"/>
      <trkpt lat="45.180305" lon="-71.911332"/>
      <trkpt lat="45.179917" lon="-71.909459"/>
      <trkpt lat="45.179573" lon="-71.908412"/>
      <trkpt lat="45.179428" lon="-71.908061"/>
      <trkpt lat="45.179311" lon="-71.907808"/>
      <trkpt lat="45.178703" lon="-71.907022"/>
      <trkpt lat="45.178015" lon="-71.906022"/>
      <trkpt lat="45.177444" lon="-71.905114"/>
      <trkpt lat="45.176881" lon="-71.904166"/>
      <trkpt lat="45.176154" lon="-71.902378"/>
      <trkpt lat="45.175763" lon="-71.901193"/>
      <trkpt lat="45.175534" lon="-71.900512"/>
      <trkpt lat="45.175319" lon="-71.899494"/>
      <trkpt lat="45.174984" lon="-71.898274"/>
      <trkpt lat="45.174614" lon="-71.895831"/>
      <trkpt lat="45.174594" lon="-71.895104"/>
      <trkpt lat="45.174619" lon="-71.893744"/>
      <trkpt lat="45.174547" lon="-71.891310"/>
      <trkpt lat="45.174516" lon="-71.888963"/>
      <trkpt lat="45.174499" lon="-71.886994"/>
      <trkpt lat="45.174418" lon="-71.884377"/>
      <trkpt lat="45.174399" lon="-71.880737"/>
      <trkpt lat="45.174381" lon="-71.880290"/>
      <trkpt lat="45.174345" lon="-71.878965"/>
      <trkpt lat="45.174143" lon="-71.875597"/>
      <trkpt lat="45.173931" lon="-71.871382"/>
      <trkpt lat="45.173904" lon="-71.870286"/>
      <trkpt lat="45.173885" lon="-71.870021"/>
      <trkpt lat="45.173826" lon="-71.869605"/>
      <trkpt lat="45.173155" lon="-71.866891"/>
      <trkpt lat="45.172769" lon="-71.865407"/>
      <trkpt lat="45.172725" lon="-71.865237"/>
      <trkpt lat="45.172601" lon="-71.864695"/>
      <trkpt lat="45.172568" lon="-71.864510"/>
      <trkpt lat="45.172534" lon="-71.864256"/>
      <trkpt lat="45.172473" lon="-71.863399"/>
      <trkpt lat="45.170955" lon="-71.863656"/>
      <trkpt lat="45.169677" lon="-71.863830"/>
      <trkpt lat="45.168375" lon="-71.863974"/>
      <trkpt lat="45.168179" lon="-71.863948"/>
      <trkpt lat="45.168164" lon="-71.863943"/>
      <trkpt lat="45.167984" lon="-71.863878"/>
      <trkpt lat="45.167806" lon="-71.863785"/>
      <trkpt lat="45.167451" lon="-71.863544"/>
      <trkpt lat="45.167154" lon="-71.863274"/>
      <trkpt lat="45.166420" lon="-71.862537"/>
      <trkpt lat="45.166114" lon="-71.862217"/>
      <trkpt lat="45.165574" lon="-71.861371"/>
      <trkpt lat="45.165379" lon="-71.860033"/>
      <trkpt lat="45.164721" lon="-71.856878"/>
      <trkpt lat="45.164580" lon="-71.856375"/>
      <trkpt lat="45.164340" lon="-71.855557"/>
      <trkpt lat="45.163624" lon="-71.853361"/>
      <trkpt lat="45.162992" lon="-71.851360"/>
      <trkpt lat="45.162851" lon="-71.850937"/>
      <trkpt lat="45.162632" lon="-71.850439"/>
      <trkpt lat="45.162526" lon="-71.850265"/>
      <trkpt lat="45.160491" lon="-71.847594"/>
      <trkpt lat="45.159533" lon="-71.846458"/>
      <trkpt lat="45.158458" lon="-71.844789"/>
      <trkpt lat="45.158350" lon="-71.844556"/>
      <trkpt lat="45.158114" lon="-71.843927"/>
      <trkpt lat="45.157977" lon="-71.843568"/>
      <trkpt lat="45.157680" lon="-71.842869"/>
      <trkpt lat="45.156825" lon="-71.840843"/>
      <trkpt lat="45.156652" lon="-71.840317"/>
      <trkpt lat="45.156477" lon="-71.839783"/>
      <trkpt lat="45.156224" lon="-71.838753"/>
      <trkpt lat="45.156091" lon="-71.835963"/>
      <trkpt lat="45.156075" lon="-71.835359"/>
      <trkpt lat="45.156146" lon="-71.833949"/>
      <trkpt lat="45.156163" lon="-71.833361"/>
      <trkpt lat="45.156146" lon="-71.832050"/>
      <trkpt lat="45.156091" lon="-71.829867"/>
      <trkpt lat="45.156072" lon="-71.828937"/>
      <trkpt lat="45.155976" lon="-71.827116"/>
      <trkpt lat="45.155838" lon="-71.825106"/>
      <trkpt lat="45.155576" lon="-71.820974"/>
      <trkpt lat="45.155482" lon="-71.816843"/>
      <trkpt lat="45.155466" lon="-71.816566"/>
      <trkpt lat="45.155303" lon="-71.815550"/>
      <trkpt lat="45.154879" lon="-71.812793"/>
      <trkpt lat="45.154858" lon="-71.812659"/>
      <trkpt lat="45.154808" lon="-71.812146"/>
      <trkpt lat="45.154797" lon="-71.811872"/>
      <trkpt lat="45.154802" lon="-71.811611"/>
      <trkpt lat="45.154826" lon="-71.811402"/>
      <trkpt lat="45.154842" lon="-71.811242"/>
      <trkpt lat="45.154796" lon="-71.810630"/>
      <trkpt lat="45.153966" lon="-71.809822"/>
      <trkpt lat="45.152829" lon="-71.809445"/>
      <trkpt lat="45.151563" lon="-71.809139"/>
      <trkpt lat="45.150923" lon="-71.809004"/>
      <trkpt lat="45.149424" lon="-71.807604"/>
      <trkpt lat="45.149337" lon="-71.807512"/>
      <trkpt lat="45.148855" lon="-71.808347"/>
      <trkpt lat="45.148153" lon="-71.809355"/>
      <trkpt lat="45.146501" lon="-71.810897"/>
      <trkpt lat="45.146367" lon="-71.811013"/>
      <trkpt lat="45.145833" lon="-71.811245"/>
      <trkpt lat="45.144193" lon="-71.810713"/>
      <trkpt lat="45.143504" lon="-71.810425"/>
      <trkpt lat="45.140017" lon="-71.808873"/>
      <trkpt lat="45.139528" lon="-71.808595"/>
      <trkpt lat="45.139389" lon="-71.808492"/>
      <trkpt lat="45.139253" lon="-71.808350"/>
      <trkpt lat="45.139122" lon="-71.808177"/>
      <trkpt lat="45.138547" lon="-71.807975"/>
      <trkpt lat="45.137683" lon="-71.807607"/>
      <trkpt lat="45.136756" lon="-71.807273"/>
      <trkpt lat="45.135693" lon="-71.807151"/>
      <trkpt lat="45.133965" lon="-71.807352"/>
      <trkpt lat="45.133944" lon="-71.806640"/>
      <trkpt lat="45.133927" lon="-71.806019"/>
      <trkpt lat="45.133520" lon="-71.805161"/>
      <trkpt lat="45.133145" lon="-71.804356"/>
      <trkpt lat="45.132138" lon="-71.804424"/>
      <trkpt lat="45.131438" lon="-71.804711"/>
      <trkpt lat="45.129999" lon="-71.804623"/>
      <trkpt lat="45.129370" lon="-71.804585"/>
      <trkpt lat="45.129402" lon="-71.803535"/>
      <trkpt lat="45.129766" lon="-71.802498"/>
      <trkpt lat="45.129548" lon="-71.801608"/>
      <trkpt lat="45.128435" lon="-71.802007"/>
      <trkpt lat="45.127624" lon="-71.802051"/>
      <trkpt lat="45.126858" lon="-71.802665"/>
      <trkpt lat="45.125710" lon="-71.802714"/>
      <trkpt lat="45.124832" lon="-71.802875"/>
      <trkpt lat="45.124179" lon="-71.802330"/>
      <trkpt lat="45.123311" lon="-71.802117"/>
      <trkpt lat="45.120260" lon="-71.802067"/>
      <trkpt lat="45.119593" lon="-71.802098"/>
      <trkpt lat="45.119196" lon="-71.802090"/>
      <trkpt lat="45.118901" lon="-71.802051"/>
      <trkpt lat="45.117379" lon="-71.801675"/>
      <trkpt lat="45.115798" lon="-71.801345"/>
      <trkpt lat="45.115652" lon="-71.801307"/>
      <trkpt lat="45.115576" lon="-71.801271"/>
      <trkpt lat="45.114303" lon="-71.800336"/>
      <trkpt lat="45.113712" lon="-71.799945"/>
      <trkpt lat="45.112322" lon="-71.798862"/>
      <trkpt lat="45.111570" lon="-71.798339"/>
      <trkpt lat="45.110887" lon="-71.797809"/>
      <trkpt lat="45.109922" lon="-71.797098"/>
      <trkpt lat="45.109746" lon="-71.797018"/>
      <trkpt lat="45.107487" lon="-71.796949"/>
      <trkpt lat="45.106594" lon="-71.796953"/>
      <trkpt lat="45.104690" lon="-71.796900"/>
      <trkpt lat="45.101099" lon="-71.796901"/>
      <trkpt lat="45.101043" lon="-71.796901"/>
      <trkpt lat="45.097764" lon="-71.796946"/>
      <trkpt lat="45.097472" lon="-71.796897"/>
      <trkpt lat="45.097060" lon="-71.796763"/>
      <trkpt lat="45.096862" lon="-71.796688"/>
      <trkpt lat="45.096480" lon="-71.796428"/>
      <trkpt lat="45.095884" lon="-71.795790"/>
      <trkpt lat="45.095516" lon="-71.795248"/>
      <trkpt lat="45.092758" lon="-71.790376"/>
      <trkpt lat="45.092466" lon="-71.789802"/>
      <trkpt lat="45.092077" lon="-71.788870"/>
      <trkpt lat="45.091927" lon="-71.788349"/>
      <trkpt lat="45.091668" lon="-71.787716"/>
      <trkpt lat="45.091528" lon="-71.787429"/>
      <trkpt lat="45.091363" lon="-71.787207"/>
      <trkpt lat="45.090858" lon="-71.786649"/>
      <trkpt lat="45.090622" lon="-71.786299"/>
      <trkpt lat="45.090466" lon="-71.786053"/>
      <trkpt lat="45.090333" lon="-71.785765"/>
      <trkpt lat="45.089907" lon="-71.784664"/>
      <trkpt lat="45.088850" lon="-71.782004"/>
      <trkpt lat="45.088494" lon="-71.781095"/>
      <trkpt lat="45.088342" lon="-71.780629"/>
      <trkpt lat="45.088112" lon="-71.780111"/>
      <trkpt lat="45.086975" lon="-71.777900"/>
      <trkpt lat="45.085895" lon="-71.775718"/>
      <trkpt lat="45.086045" lon="-71.775662"/>
      <trkpt lat="45.086440" lon="-71.775524"/>
      <trkpt lat="45.087602" lon="-71.775141"/>
      <trkpt lat="45.087760" lon="-71.775089"/>
      <trkpt lat="45.088101" lon="-71.775008"/>
      <trkpt lat="45.088418" lon="-71.774935"/>
      <trkpt lat="45.090119" lon="-71.774868"/>
      <trkpt lat="45.091822" lon="-71.774807"/>
      <trkpt lat="45.092726" lon="-71.774788"/>
      <trkpt lat="45.093019" lon="-71.774796"/>
      <trkpt lat="45.093206" lon="-71.774813"/>
      <trkpt lat="45.094198" lon="-71.772744"/>
      <trkpt lat="45.094406" lon="-71.772258"/>
      <trkpt lat="45.094664" lon="-71.771389"/>
      <trkpt lat="45.095351" lon="-71.767936"/>
      <trkpt lat="45.095479" lon="-71.767521"/>
      <trkpt lat="45.095659" lon="-71.767097"/>
      <trkpt lat="45.096106" lon="-71.766364"/>
      <trkpt lat="45.097384" lon="-71.764602"/>
      <trkpt lat="45.097844" lon="-71.763788"/>
      <trkpt lat="45.099191" lon="-71.761722"/>
      <trkpt lat="45.099599" lon="-71.760987"/>
      <trkpt lat="45.100673" lon="-71.759287"/>
      <trkpt lat="45.101002" lon="-71.758936"/>
      <trkpt lat="45.101368" lon="-71.758581"/>
      <trkpt lat="45.101566" lon="-71.758322"/>
      <trkpt lat="45.102085" lon="-71.757115"/>
      <trkpt lat="45.102280" lon="-71.756469"/>
      <trkpt lat="45.102067" lon="-71.755149"/>
      <trkpt lat="45.100927" lon="-71.752512"/>
      <trkpt lat="45.100723" lon="-71.752307"/>
      <trkpt lat="45.100205" lon="-71.751856"/>
      <trkpt lat="45.098963" lon="-71.751036"/>
      <trkpt lat="45.098702" lon="-71.750875"/>
      <trkpt lat="45.097464" lon="-71.750091"/>
      <trkpt lat="45.096017" lon="-71.749204"/>
      <trkpt lat="45.092565" lon="-71.747118"/>
      <trkpt lat="45.090201" lon="-71.745720"/>
      <trkpt lat="45.089898" lon="-71.745540"/>
      <trkpt lat="45.089851" lon="-71.745494"/>
      <trkpt lat="45.089795" lon="-71.745421"/>
      <trkpt lat="45.089751" lon="-71.745335"/>
      <trkpt lat="45.089727" lon="-71.745255"/>
      <trkpt lat="45.089703" lon="-71.745114"/>
      <trkpt lat="45.089687" lon="-71.741904"/>
      <trkpt lat="45.089752" lon="-71.735517"/>
      <trkpt lat="45.089743" lon="-71.735324"/>
      <trkpt lat="45.089718" lon="-71.735104"/>
      <trkpt lat="45.089690" lon="-71.734919"/>
      <trkpt lat="45.089632" lon="-71.734660"/>
      <trkpt lat="45.089065" lon="-71.731426"/>
      <trkpt lat="45.088420" lon="-71.727743"/>
      <trkpt lat="45.088337" lon="-71.727119"/>
      <trkpt lat="45.088350" lon="-71.726343"/>
      <trkpt lat="45.088401" lon="-71.723408"/>
      <trkpt lat="45.088423" lon="-71.723169"/>
      <trkpt lat="45.088450" lon="-71.722554"/>
      <trkpt lat="45.088466" lon="-71.721445"/>
      <trkpt lat="45.088476" lon="-71.720519"/>
      <trkpt lat="45.088434" lon="-71.717742"/>
      <trkpt lat="45.088399" lon="-71.717298"/>
      <trkpt lat="45.088336" lon="-71.716700"/>
      <trkpt lat="45.088303" lon="-71.716235"/>
      <trkpt lat="45.088290" lon="-71.715883"/>
      <trkpt lat="45.088257" lon="-71.713413"/>
      <trkpt lat="45.088234" lon="-71.709171"/>
      <trkpt lat="45.088216" lon="-71.708360"/>
      <trkpt lat="45.088188" lon="-71.707810"/>
      <trkpt lat="45.087972" lon="-71.706117"/>
      <trkpt lat="45.087924" lon="-71.705522"/>
      <trkpt lat="45.087895" lon="-71.704860"/>
      <trkpt lat="45.087906" lon="-71.704377"/>
      <trkpt lat="45.088090" lon="-71.702904"/>
      <trkpt lat="45.088300" lon="-71.701221"/>
      <trkpt lat="45.088706" lon="-71.697985"/>
      <trkpt lat="45.089397" lon="-71.693742"/>
      <trkpt lat="45.090109" lon="-71.691469"/>
      <trkpt lat="45.090838" lon="-71.689235"/>
      <trkpt lat="45.090953" lon="-71.689350"/>
      <trkpt lat="45.092193" lon="-71.690579"/>
      <trkpt lat="45.092189" lon="-71.689135"/>
      <trkpt lat="45.092194" lon="-71.688259"/>
      <trkpt lat="45.092206" lon="-71.686888"/>
      <trkpt lat="45.092208" lon="-71.686215"/>
      <trkpt lat="45.092231" lon="-71.685277"/>
      <trkpt lat="45.092232" lon="-71.684654"/>
      <trkpt lat="45.092275" lon="-71.684186"/>
      <trkpt lat="45.092312" lon="-71.683539"/>
      <trkpt lat="45.092275" lon="-71.683018"/>
      <trkpt lat="45.092263" lon="-71.682674"/>
      <trkpt lat="45.092274" lon="-71.682522"/>
      <trkpt lat="45.092303" lon="-71.682384"/>
      <trkpt lat="45.092380" lon="-71.682094"/>
      <trkpt lat="45.092418" lon="-71.681905"/>
      <trkpt lat="45.092433" lon="-71.681550"/>
      <trkpt lat="45.092040" lon="-71.680397"/>
      <trkpt lat="45.092150" lon="-71.678912"/>
      <trkpt lat="45.092219" lon="-71.677340"/>
      <trkpt lat="45.092226" lon="-71.675702"/>
      <trkpt lat="45.092262" lon="-71.672306"/>
      <trkpt lat="45.089644" lon="-71.672245"/>
      <trkpt lat="45.089012" lon="-71.672247"/>
      <trkpt lat="45.088609" lon="-71.672248"/>
      <trkpt lat="45.086860" lon="-71.672357"/>
      <trkpt lat="45.080646" lon="-71.672092"/>
      <trkpt lat="45.077939" lon="-71.672109"/>
      <trkpt lat="45.074546" lon="-71.672130"/>
      <trkpt lat="45.074435" lon="-71.672031"/>
      <trkpt lat="45.073705" lon="-71.671330"/>
      <trkpt lat="45.074156" lon="-71.670540"/>
      <trkpt lat="45.074234" lon="-71.670338"/>
      <trkpt lat="45.074331" lon="-71.670022"/>
      <trkpt lat="45.074402" lon="-71.669756"/>
      <trkpt lat="45.074468" lon="-71.669373"/>
      <trkpt lat="45.074509" lon="-71.668982"/>
      <trkpt lat="45.074532" lon="-71.668661"/>
      <trkpt lat="45.074581" lon="-71.668285"/>
      <trkpt lat="45.074628" lon="-71.667976"/>
      <trkpt lat="45.074708" lon="-71.667644"/>
      <trkpt lat="45.074810" lon="-71.667330"/>
      <trkpt lat="45.075214" lon="-71.666454"/>
      <trkpt lat="45.075447" lon="-71.666022"/>
      <trkpt lat="45.075625" lon="-71.665648"/>
      <trkpt lat="45.076302" lon="-71.664075"/>
      <trkpt lat="45.076440" lon="-71.663710"/>
      <trkpt lat="45.076558" lon="-71.663336"/>
      <trkpt lat="45.076768" lon="-71.662511"/>
      <trkpt lat="45.076820" lon="-71.662385"/>
      <trkpt lat="45.076858" lon="-71.662293"/>
      <trkpt lat="45.077420" lon="-71.661229"/>
      <trkpt lat="45.077567" lon="-71.657837"/>
      <trkpt lat="45.077752" lon="-71.657911"/>
      <trkpt lat="45.077841" lon="-71.657894"/>
      <trkpt lat="45.078510" lon="-71.657225"/>
      <trkpt lat="45.079585" lon="-71.657340"/>
      <trkpt lat="45.080315" lon="-71.657385"/>
      <trkpt lat="45.079234" lon="-71.657248"/>
      <trkpt lat="45.078596" lon="-71.657189"/>
      <trkpt lat="45.077752" lon="-71.657911"/>
      <trkpt lat="45.077617" lon="-71.655849"/>
      <trkpt lat="45.077644" lon="-71.654821"/>
      <trkpt lat="45.077644" lon="-71.654161"/>
      <trkpt lat="45.077655" lon="-71.650964"/>
      <trkpt lat="45.077744" lon="-71.650636"/>
      <trkpt lat="45.077820" lon="-71.650470"/>
      <trkpt lat="45.077917" lon="-71.650331"/>
      <trkpt lat="45.078542" lon="-71.649710"/>
      <trkpt lat="45.078618" lon="-71.649572"/>
      <trkpt lat="45.078717" lon="-71.649275"/>
      <trkpt lat="45.078715" lon="-71.649107"/>
      <trkpt lat="45.078687" lon="-71.648938"/>
      <trkpt lat="45.078548" lon="-71.648651"/>
      <trkpt lat="45.078482" lon="-71.648584"/>
      <trkpt lat="45.078221" lon="-71.648487"/>
      <trkpt lat="45.078029" lon="-71.648481"/>
      <trkpt lat="45.077742" lon="-71.648490"/>
      <trkpt lat="45.077542" lon="-71.648439"/>
      <trkpt lat="45.077483" lon="-71.648395"/>
      <trkpt lat="45.077420" lon="-71.648285"/>
      <trkpt lat="45.077419" lon="-71.648008"/>
      <trkpt lat="45.077550" lon="-71.647434"/>
      <trkpt lat="45.077848" lon="-71.645442"/>
      <trkpt lat="45.077949" lon="-71.644709"/>
      <trkpt lat="45.078049" lon="-71.644372"/>
      <trkpt lat="45.078216" lon="-71.644024"/>
      <trkpt lat="45.078342" lon="-71.643820"/>
      <trkpt lat="45.078579" lon="-71.643640"/>
      <trkpt lat="45.078715" lon="-71.643520"/>
      <trkpt lat="45.078809" lon="-71.643385"/>
      <trkpt lat="45.079270" lon="-71.642586"/>
      <trkpt lat="45.079408" lon="-71.642397"/>
      <trkpt lat="45.079612" lon="-71.642185"/>
      <trkpt lat="45.079745" lon="-71.642110"/>
      <trkpt lat="45.079966" lon="-71.642029"/>
      <trkpt lat="45.080540" lon="-71.641757"/>
      <trkpt lat="45.080723" lon="-71.641603"/>
      <trkpt lat="45.081015" lon="-71.641314"/>
      <trkpt lat="45.081083" lon="-71.641156"/>
      <trkpt lat="45.081117" lon="-71.640994"/>
      <trkpt lat="45.080986" lon="-71.637878"/>
      <trkpt lat="45.080980" lon="-71.637671"/>
      <trkpt lat="45.081077" lon="-71.637428"/>
      <trkpt lat="45.081568" lon="-71.637828"/>
      <trkpt lat="45.085430" lon="-71.640849"/>
      <trkpt lat="45.085635" lon="-71.640945"/>
      <trkpt lat="45.085831" lon="-71.641019"/>
      <trkpt lat="45.086900" lon="-71.641658"/>
      <trkpt lat="45.087528" lon="-71.641985"/>
      <trkpt lat="45.088475" lon="-71.642544"/>
      <trkpt lat="45.088561" lon="-71.642639"/>
      <trkpt lat="45.088690" lon="-71.642900"/>
      <trkpt lat="45.089199" lon="-71.644592"/>
      <trkpt lat="45.089461" lon="-71.645381"/>
      <trkpt lat="45.089586" lon="-71.645787"/>
      <trkpt lat="45.089700" lon="-71.646061"/>
      <trkpt lat="45.089825" lon="-71.646313"/>
      <trkpt lat="45.090177" lon="-71.646803"/>
      <trkpt lat="45.090659" lon="-71.647401"/>
      <trkpt lat="45.090998" lon="-71.647894"/>
      <trkpt lat="45.091392" lon="-71.648337"/>
      <trkpt lat="45.092488" lon="-71.649520"/>
      <trkpt lat="45.094006" lon="-71.651089"/>
      <trkpt lat="45.094822" lon="-71.652049"/>
      <trkpt lat="45.095331" lon="-71.652589"/>
      <trkpt lat="45.095397" lon="-71.652656"/>
      <trkpt lat="45.095679" lon="-71.652882"/>
      <trkpt lat="45.096209" lon="-71.653234"/>
      <trkpt lat="45.097429" lon="-71.653799"/>
      <trkpt lat="45.098248" lon="-71.654038"/>
      <trkpt lat="45.098563" lon="-71.654104"/>
      <trkpt lat="45.098797" lon="-71.654124"/>
      <trkpt lat="45.099114" lon="-71.654131"/>
      <trkpt lat="45.099247" lon="-71.654132"/>
      <trkpt lat="45.104256" lon="-71.654171"/>
      <trkpt lat="45.104397" lon="-71.654173"/>
      <trkpt lat="45.104393" lon="-71.654502"/>
      <trkpt lat="45.104336" lon="-71.659984"/>
      <trkpt lat="45.104238" lon="-71.664235"/>
      <trkpt lat="45.104197" lon="-71.666531"/>
      <trkpt lat="45.104233" lon="-71.667131"/>
      <trkpt lat="45.104405" lon="-71.667845"/>
      <trkpt lat="45.104502" lon="-71.668127"/>
      <trkpt lat="45.105117" lon="-71.669782"/>
      <trkpt lat="45.105295" lon="-71.670619"/>
      <trkpt lat="45.105470" lon="-71.671499"/>
      <trkpt lat="45.105565" lon="-71.672146"/>
      <trkpt lat="45.105591" lon="-71.672456"/>
      <trkpt lat="45.105588" lon="-71.672551"/>
      <trkpt lat="45.105708" lon="-71.672458"/>
      <trkpt lat="45.109618" lon="-71.672515"/>
      <trkpt lat="45.115351" lon="-71.672547"/>
      <trkpt lat="45.118187" lon="-71.672564"/>
      <trkpt lat="45.118420" lon="-71.672566"/>
      <trkpt lat="45.120611" lon="-71.672553"/>
      <trkpt lat="45.128736" lon="-71.672747"/>
      <trkpt lat="45.130212" lon="-71.672772"/>
      <trkpt lat="45.141189" lon="-71.672954"/>
      <trkpt lat="45.141217" lon="-71.671399"/>
      <trkpt lat="45.141523" lon="-71.661168"/>
      <trkpt lat="45.141545" lon="-71.660428"/>
      <trkpt lat="45.142099" lon="-71.660199"/>
      <trkpt lat="45.143039" lon="-71.660062"/>
      <trkpt lat="45.148247" lon="-71.659529"/>
      <trkpt lat="45.152385" lon="-71.659097"/>
      <trkpt lat="45.152739" lon="-71.659025"/>
      <trkpt lat="45.154476" lon="-71.658570"/>
      <trkpt lat="45.155476" lon="-71.658451"/>
      <trkpt lat="45.155953" lon="-71.658459"/>
      <trkpt lat="45.156847" lon="-71.658518"/>
      <trkpt lat="45.157102" lon="-71.658567"/>
      <trkpt lat="45.157393" lon="-71.658695"/>
      <trkpt lat="45.158001" lon="-71.659063"/>
      <trkpt lat="45.158250" lon="-71.659249"/>
      <trkpt lat="45.159156" lon="-71.660009"/>
      <trkpt lat="45.159315" lon="-71.660102"/>
      <trkpt lat="45.159436" lon="-71.660161"/>
      <trkpt lat="45.159746" lon="-71.660223"/>
      <trkpt lat="45.161248" lon="-71.660329"/>
      <trkpt lat="45.162680" lon="-71.660308"/>
      <trkpt lat="45.163170" lon="-71.660301"/>
      <trkpt lat="45.165334" lon="-71.660382"/>
      <trkpt lat="45.169779" lon="-71.660441"/>
      <trkpt lat="45.172164" lon="-71.660517"/>
      <trkpt lat="45.172910" lon="-71.660540"/>
      <trkpt lat="45.173407" lon="-71.660555"/>
      <trkpt lat="45.175027" lon="-71.660604"/>
      <trkpt lat="45.175972" lon="-71.660667"/>
      <trkpt lat="45.176354" lon="-71.660746"/>
      <trkpt lat="45.177095" lon="-71.660963"/>
      <trkpt lat="45.177457" lon="-71.661117"/>
      <trkpt lat="45.177831" lon="-71.661333"/>
      <trkpt lat="45.178638" lon="-71.661873"/>
      <trkpt lat="45.178892" lon="-71.662096"/>
      <trkpt lat="45.180049" lon="-71.663257"/>
      <trkpt lat="45.180430" lon="-71.663607"/>
      <trkpt lat="45.180870" lon="-71.664014"/>
      <trkpt lat="45.186007" lon="-71.668418"/>
      <trkpt lat="45.186284" lon="-71.668654"/>
      <trkpt lat="45.186806" lon="-71.669012"/>
      <trkpt lat="45.189366" lon="-71.670410"/>
      <trkpt lat="45.190085" lon="-71.670737"/>
      <trkpt lat="45.191426" lon="-71.671323"/>
      <trkpt lat="45.191630" lon="-71.671412"/>
      <trkpt lat="45.191968" lon="-71.671504"/>
      <trkpt lat="45.194536" lon="-71.671971"/>
      <trkpt lat="45.195788" lon="-71.672172"/>
      <trkpt lat="45.197351" lon="-71.672460"/>
      <trkpt lat="45.197721" lon="-71.672575"/>
      <trkpt lat="45.199059" lon="-71.673103"/>
      <trkpt lat="45.199630" lon="-71.673385"/>
      <trkpt lat="45.199741" lon="-71.673395"/>
      <trkpt lat="45.199911" lon="-71.673365"/>
      <trkpt lat="45.200021" lon="-71.673724"/>
      <trkpt lat="45.200119" lon="-71.673983"/>
      <trkpt lat="45.200782" lon="-71.675383"/>
      <trkpt lat="45.201533" lon="-71.676974"/>
      <trkpt lat="45.202038" lon="-71.677979"/>
      <trkpt lat="45.202395" lon="-71.678454"/>
      <trkpt lat="45.202566" lon="-71.678726"/>
      <trkpt lat="45.203241" lon="-71.679972"/>
      <trkpt lat="45.203465" lon="-71.680339"/>
      <trkpt lat="45.204132" lon="-71.681119"/>
      <trkpt lat="45.204451" lon="-71.681473"/>
      <trkpt lat="45.204809" lon="-71.681863"/>
      <trkpt lat="45.205369" lon="-71.682465"/>
      <trkpt lat="45.205648" lon="-71.682711"/>
      <trkpt lat="45.205787" lon="-71.682834"/>
      <trkpt lat="45.207129" lon="-71.683772"/>
      <trkpt lat="45.208175" lon="-71.684525"/>
      <trkpt lat="45.209324" lon="-71.685383"/>
      <trkpt lat="45.209599" lon="-71.685607"/>
      <trkpt lat="45.210007" lon="-71.685940"/>
      <trkpt lat="45.211181" lon="-71.687117"/>
      <trkpt lat="45.211489" lon="-71.687460"/>
      <trkpt lat="45.212220" lon="-71.688338"/>
      <trkpt lat="45.212747" lon="-71.689105"/>
      <trkpt lat="45.213355" lon="-71.690019"/>
      <trkpt lat="45.215093" lon="-71.692398"/>
      <trkpt lat="45.216653" lon="-71.694404"/>
      <trkpt lat="45.219790" lon="-71.698395"/>
      <trkpt lat="45.220119" lon="-71.698786"/>
      <trkpt lat="45.220397" lon="-71.699092"/>
      <trkpt lat="45.220933" lon="-71.699536"/>
      <trkpt lat="45.221199" lon="-71.699704"/>
      <trkpt lat="45.221492" lon="-71.699824"/>
      <trkpt lat="45.221747" lon="-71.699876"/>
      <trkpt lat="45.222050" lon="-71.699914"/>
      <trkpt lat="45.225351" lon="-71.699966"/>
      <trkpt lat="45.228989" lon="-71.700022"/>
      <trkpt lat="45.230388" lon="-71.700079"/>
      <trkpt lat="45.230608" lon="-71.700122"/>
      <trkpt lat="45.230825" lon="-71.700178"/>
      <trkpt lat="45.231305" lon="-71.700389"/>
      <trkpt lat="45.231543" lon="-71.700530"/>
      <trkpt lat="45.232014" lon="-71.700875"/>
      <trkpt lat="45.232208" lon="-71.701055"/>
      <trkpt lat="45.232462" lon="-71.701326"/>
      <trkpt lat="45.235081" lon="-71.704550"/>
      <trkpt lat="45.236154" lon="-71.705862"/>
      <trkpt lat="45.236699" lon="-71.706514"/>
      <trkpt lat="45.237408" lon="-71.707523"/>
      <trkpt lat="45.237622" lon="-71.707874"/>
      <trkpt lat="45.238015" lon="-71.708640"/>
      <trkpt lat="45.238211" lon="-71.709095"/>
      <trkpt lat="45.238366" lon="-71.709517"/>
      <trkpt lat="45.239109" lon="-71.712030"/>
      <trkpt lat="45.239304" lon="-71.712597"/>
      <trkpt lat="45.239575" lon="-71.713171"/>
      <trkpt lat="45.239699" lon="-71.713368"/>
      <trkpt lat="45.239987" lon="-71.713746"/>
      <trkpt lat="45.240645" lon="-71.714277"/>
      <trkpt lat="45.240971" lon="-71.714411"/>
      <trkpt lat="45.241457" lon="-71.714531"/>
      <trkpt lat="45.241692" lon="-71.714536"/>
      <trkpt lat="45.242146" lon="-71.714468"/>
      <trkpt lat="45.245049" lon="-71.713811"/>
      <trkpt lat="45.246946" lon="-71.713378"/>
      <trkpt lat="45.248037" lon="-71.713111"/>
      <trkpt lat="45.248415" lon="-71.712994"/>
      <trkpt lat="45.248888" lon="-71.712781"/>
      <trkpt lat="45.251585" lon="-71.711205"/>
      <trkpt lat="45.251812" lon="-71.711103"/>
      <trkpt lat="45.252394" lon="-71.710963"/>
      <trkpt lat="45.255267" lon="-71.710602"/>
      <trkpt lat="45.255526" lon="-71.710570"/>
      <trkpt lat="45.262589" lon="-71.710112"/>
      <trkpt lat="45.267070" lon="-71.709955"/>
      <trkpt lat="45.268262" lon="-71.710028"/>
      <trkpt lat="45.268589" lon="-71.710094"/>
      <trkpt lat="45.271623" lon="-71.711154"/>
      <trkpt lat="45.274049" lon="-71.712015"/>
      <trkpt lat="45.275469" lon="-71.712530"/>
      <trkpt lat="45.276623" lon="-71.712995"/>
      <trkpt lat="45.277122" lon="-71.713264"/>
      <trkpt lat="45.278073" lon="-71.713945"/>
      <trkpt lat="45.278208" lon="-71.714003"/>
      <trkpt lat="45.278078" lon="-71.716567"/>
      <trkpt lat="45.278123" lon="-71.718382"/>
      <trkpt lat="45.278118" lon="-71.718503"/>
      <trkpt lat="45.278040" lon="-71.718975"/>
      <trkpt lat="45.277649" lon="-71.720424"/>
      <trkpt lat="45.277628" lon="-71.720546"/>
      <trkpt lat="45.277611" lon="-71.720832"/>
      <trkpt lat="45.277598" lon="-71.721279"/>
      <trkpt lat="45.277579" lon="-71.721551"/>
      <trkpt lat="45.277517" lon="-71.721682"/>
      <trkpt lat="45.276930" lon="-71.722621"/>
      <trkpt lat="45.276720" lon="-71.723055"/>
      <trkpt lat="45.276708" lon="-71.723105"/>
      <trkpt lat="45.276629" lon="-71.723668"/>
      <trkpt lat="45.276588" lon="-71.723945"/>
      <trkpt lat="45.277215" lon="-71.725789"/>
      <trkpt lat="45.278370" lon="-71.728691"/>
      <trkpt lat="45.278520" lon="-71.729067"/>
      <trkpt lat="45.278649" lon="-71.729631"/>
      <trkpt lat="45.278643" lon="-71.731403"/>
      <trkpt lat="45.278577" lon="-71.735296"/>
      <trkpt lat="45.278768" lon="-71.743653"/>
      <trkpt lat="45.278858" lon="-71.745250"/>
      <trkpt lat="45.278857" lon="-71.745819"/>
      <trkpt lat="45.278794" lon="-71.746279"/>
      <trkpt lat="45.278708" lon="-71.746465"/>
      <trkpt lat="45.276552" lon="-71.750813"/>
      <trkpt lat="45.275608" lon="-71.752999"/>
      <trkpt lat="45.275375" lon="-71.753727"/>
      <trkpt lat="45.275261" lon="-71.756182"/>
      <trkpt lat="45.275152" lon="-71.757350"/>
      <trkpt lat="45.274143" lon="-71.764440"/>
      <trkpt lat="45.273951" lon="-71.765311"/>
      <trkpt lat="45.272185" lon="-71.771331"/>
      <trkpt lat="45.271460" lon="-71.774139"/>
      <trkpt lat="45.271457" lon="-71.774598"/>
      <trkpt lat="45.278568" lon="-71.772638"/>
      <trkpt lat="45.279220" lon="-71.772381"/>
      <trkpt lat="45.280114" lon="-71.772252"/>
      <trkpt lat="45.291741" lon="-71.771809"/>
      <trkpt lat="45.291752" lon="-71.771808"/>
      <trkpt lat="45.294105" lon="-71.771651"/>
      <trkpt lat="45.294860" lon="-71.771505"/>
      <trkpt lat="45.295808" lon="-71.771276"/>
      <trkpt lat="45.295377" lon="-71.788174"/>
      <trkpt lat="45.295352" lon="-71.791400"/>
      <trkpt lat="45.295097" lon="-71.792267"/>
      <trkpt lat="45.293114" lon="-71.794555"/>
      <trkpt lat="45.292690" lon="-71.795337"/>
      <trkpt lat="45.292127" lon="-71.796661"/>
      <trkpt lat="45.292073" lon="-71.797016"/>
      <trkpt lat="45.291920" lon="-71.798858"/>
      <trkpt lat="45.291557" lon="-71.800253"/>
      <trkpt lat="45.291355" lon="-71.800603"/>
      <trkpt lat="45.291159" lon="-71.800984"/>
      <trkpt lat="45.291202" lon="-71.800999"/>
      <trkpt lat="45.295295" lon="-71.801898"/>
      <trkpt lat="45.300083" lon="-71.803752"/>
      <trkpt lat="45.300354" lon="-71.803924"/>
      <trkpt lat="45.300462" lon="-71.804322"/>
      <trkpt lat="45.300470" lon="-71.805177"/>
      <trkpt lat="45.300487" lon="-71.805253"/>
      <trkpt lat="45.300631" lon="-71.805453"/>
      <trkpt lat="45.300659" lon="-71.805471"/>
      <trkpt lat="45.303258" lon="-71.805186"/>
      <trkpt lat="45.303584" lon="-71.805099"/>
      <trkpt lat="45.305423" lon="-71.804533"/>
      <trkpt lat="45.305636" lon="-71.804527"/>
      <trkpt lat="45.306258" lon="-71.804670"/>
      <trkpt lat="45.308323" lon="-71.806087"/>
      <trkpt lat="45.308806" lon="-71.806447"/>
      <trkpt lat="45.309470" lon="-71.806670"/>
      <trkpt lat="45.310612" lon="-71.806719"/>
      <trkpt lat="45.311048" lon="-71.806865"/>
      <trkpt lat="45.311207" lon="-71.806881"/>
      <trkpt lat="45.311820" lon="-71.806895"/>
      <trkpt lat="45.313436" lon="-71.812762"/>
      <trkpt lat="45.313405" lon="-71.815355"/>
      <trkpt lat="45.313467" lon="-71.817096"/>
      <trkpt lat="45.313703" lon="-71.819912"/>
      <trkpt lat="45.313715" lon="-71.820129"/>
      <trkpt lat="45.313731" lon="-71.820746"/>
      <trkpt lat="45.313725" lon="-71.821031"/>
      <trkpt lat="45.313712" lon="-71.821302"/>
      <trkpt lat="45.313463" lon="-71.823732"/>
      <trkpt lat="45.313374" lon="-71.824295"/>
      <trkpt lat="45.313280" lon="-71.824697"/>
      <trkpt lat="45.313186" lon="-71.825033"/>
      <trkpt lat="45.311783" lon="-71.828945"/>
      <trkpt lat="45.310829" lon="-71.831512"/>
      <trkpt lat="45.310512" lon="-71.832267"/>
      <trkpt lat="45.309573" lon="-71.833856"/>
      <trkpt lat="45.310412" lon="-71.834852"/>
      <trkpt lat="45.311363" lon="-71.835970"/>
      <trkpt lat="45.311651" lon="-71.836383"/>
      <trkpt lat="45.314320" lon="-71.840384"/>
      <trkpt lat="45.314588" lon="-71.840718"/>
      <trkpt lat="45.314904" lon="-71.841054"/>
      <trkpt lat="45.317336" lon="-71.843251"/>
      <trkpt lat="45.318414" lon="-71.844275"/>
      <trkpt lat="45.318831" lon="-71.844724"/>
      <trkpt lat="45.320622" lon="-71.846256"/>
      <trkpt lat="45.320798" lon="-71.846386"/>
      <trkpt lat="45.321243" lon="-71.846611"/>
      <trkpt lat="45.321478" lon="-71.846683"/>
      <trkpt lat="45.322381" lon="-71.846934"/>
      <trkpt lat="45.322558" lon="-71.846960"/>
      <trkpt lat="45.322717" lon="-71.846958"/>
      <trkpt lat="45.323104" lon="-71.846825"/>
      <trkpt lat="45.323534" lon="-71.846586"/>
      <trkpt lat="45.323698" lon="-71.846531"/>
      <trkpt lat="45.324116" lon="-71.846510"/>
      <trkpt lat="45.325250" lon="-71.846629"/>
      <trkpt lat="45.326139" lon="-71.846651"/>
      <trkpt lat="45.326312" lon="-71.846562"/>
      <trkpt lat="45.326954" lon="-71.846063"/>
      <trkpt lat="45.327455" lon="-71.845848"/>
      <trkpt lat="45.327605" lon="-71.845819"/>
      <trkpt lat="45.328041" lon="-71.845777"/>
      <trkpt lat="45.328534" lon="-71.845607"/>
      <trkpt lat="45.328741" lon="-71.845579"/>
      <trkpt lat="45.329127" lon="-71.845618"/>
      <trkpt lat="45.329346" lon="-71.845714"/>
      <trkpt lat="45.329907" lon="-71.846050"/>
      <trkpt lat="45.330025" lon="-71.846086"/>
      <trkpt lat="45.330187" lon="-71.846111"/>
      <trkpt lat="45.331033" lon="-71.846164"/>
      <trkpt lat="45.331197" lon="-71.846188"/>
      <trkpt lat="45.332248" lon="-71.846627"/>
      <trkpt lat="45.332416" lon="-71.846669"/>
      <trkpt lat="45.333058" lon="-71.846754"/>
      <trkpt lat="45.333665" lon="-71.846933"/>
      <trkpt lat="45.334528" lon="-71.847403"/>
      <trkpt lat="45.334899" lon="-71.847494"/>
      <trkpt lat="45.335683" lon="-71.847567"/>
      <trkpt lat="45.335882" lon="-71.847623"/>
      <trkpt lat="45.336641" lon="-71.847929"/>
      <trkpt lat="45.337480" lon="-71.848523"/>
      <trkpt lat="45.337553" lon="-71.848547"/>
      <trkpt lat="45.337727" lon="-71.848529"/>
      <trkpt lat="45.338224" lon="-71.848304"/>
      <trkpt lat="45.339227" lon="-71.847848"/>
      <trkpt lat="45.339317" lon="-71.848023"/>
      <trkpt lat="45.339407" lon="-71.848175"/>
      <trkpt lat="45.339603" lon="-71.848446"/>
      <trkpt lat="45.339903" lon="-71.848773"/>
      <trkpt lat="45.340389" lon="-71.848969"/>
      <trkpt lat="45.340698" lon="-71.848672"/>
      <trkpt lat="45.340878" lon="-71.848518"/>
      <trkpt lat="45.340909" lon="-71.848561"/>
      <trkpt lat="45.341014" lon="-71.848670"/>
      <trkpt lat="45.341362" lon="-71.849290"/>
      <trkpt lat="45.341713" lon="-71.849924"/>
      <trkpt lat="45.341785" lon="-71.850015"/>
      <trkpt lat="45.341982" lon="-71.850159"/>
      <trkpt lat="45.342089" lon="-71.850194"/>
      <trkpt lat="45.342353" lon="-71.850184"/>
      <trkpt lat="45.342923" lon="-71.850092"/>
      <trkpt lat="45.343668" lon="-71.849985"/>
      <trkpt lat="45.345466" lon="-71.849687"/>
      <trkpt lat="45.345567" lon="-71.849682"/>
      <trkpt lat="45.345762" lon="-71.849706"/>
      <trkpt lat="45.345857" lon="-71.849736"/>
      <trkpt lat="45.346375" lon="-71.849980"/>
      <trkpt lat="45.347405" lon="-71.850590"/>
      <trkpt lat="45.347678" lon="-71.850708"/>
      <trkpt lat="45.347909" lon="-71.850760"/>
      <trkpt lat="45.348019" lon="-71.850770"/>
      <trkpt lat="45.348173" lon="-71.850776"/>
      <trkpt lat="45.348749" lon="-71.850701"/>
      <trkpt lat="45.349347" lon="-71.850585"/>
      <trkpt lat="45.349509" lon="-71.850578"/>
      <trkpt lat="45.349777" lon="-71.850644"/>
      <trkpt lat="45.349982" lon="-71.850751"/>
      <trkpt lat="45.350136" lon="-71.850859"/>
      <trkpt lat="45.350359" lon="-71.851031"/>
      <trkpt lat="45.350898" lon="-71.851440"/>
      <trkpt lat="45.351778" lon="-71.852049"/>
      <trkpt lat="45.351914" lon="-71.852190"/>
      <trkpt lat="45.352439" lon="-71.852780"/>
      <trkpt lat="45.352524" lon="-71.852875"/>
      <trkpt lat="45.353317" lon="-71.853761"/>
      <trkpt lat="45.353481" lon="-71.853945"/>
      <trkpt lat="45.353659" lon="-71.854132"/>
      <trkpt lat="45.353828" lon="-71.854246"/>
      <trkpt lat="45.354027" lon="-71.854319"/>
      <trkpt lat="45.354659" lon="-71.854541"/>
      <trkpt lat="45.355705" lon="-71.854818"/>
      <trkpt lat="45.355863" lon="-71.854824"/>
      <trkpt lat="45.356832" lon="-71.854791"/>
      <trkpt lat="45.356981" lon="-71.854786"/>
      <trkpt lat="45.357182" lon="-71.854779"/>
      <trkpt lat="45.358158" lon="-71.854745"/>
      <trkpt lat="45.358309" lon="-71.854740"/>
      <trkpt lat="45.358715" lon="-71.854729"/>
      <trkpt lat="45.358758" lon="-71.854744"/>
      <trkpt lat="45.358819" lon="-71.855464"/>
      <trkpt lat="45.358842" lon="-71.855716"/>
      <trkpt lat="45.359401" lon="-71.855682"/>
      <trkpt lat="45.359602" lon="-71.855705"/>
      <trkpt lat="45.360384" lon="-71.855917"/>
      <trkpt lat="45.359602" lon="-71.855705"/>
      <trkpt lat="45.359489" lon="-71.855688"/>
      <trkpt lat="45.359401" lon="-71.855683"/>
      <trkpt lat="45.358842" lon="-71.855716"/>
      <trkpt lat="45.358827" lon="-71.855548"/>
      <trkpt lat="45.358819" lon="-71.855465"/>
      <trkpt lat="45.358767" lon="-71.854893"/>
      <trkpt lat="45.358758" lon="-71.854744"/>
      <trkpt lat="45.358752" lon="-71.854512"/>
      <trkpt lat="45.358750" lon="-71.854308"/>
      <trkpt lat="45.358751" lon="-71.854142"/>
      <trkpt lat="45.358753" lon="-71.853775"/>
      <trkpt lat="45.358755" lon="-71.853672"/>
      <trkpt lat="45.358760" lon="-71.853587"/>
      <trkpt lat="45.358777" lon="-71.853504"/>
      <trkpt lat="45.359069" lon="-71.852457"/>
      <trkpt lat="45.359157" lon="-71.852160"/>
      <trkpt lat="45.359210" lon="-71.852131"/>
      <trkpt lat="45.359298" lon="-71.851710"/>
      <trkpt lat="45.359305" lon="-71.851663"/>
      <trkpt lat="45.359312" lon="-71.851400"/>
      <trkpt lat="45.359334" lon="-71.851320"/>
      <trkpt lat="45.359385" lon="-71.851268"/>
      <trkpt lat="45.359438" lon="-71.851267"/>
      <trkpt lat="45.359483" lon="-71.851283"/>
      <trkpt lat="45.359599" lon="-71.851316"/>
      <trkpt lat="45.359667" lon="-71.851327"/>
      <trkpt lat="45.359884" lon="-71.851409"/>
      <trkpt lat="45.360193" lon="-71.851375"/>
      <trkpt lat="45.360403" lon="-71.851251"/>
      <trkpt lat="45.360864" lon="-71.850924"/>
      <trkpt lat="45.361015" lon="-71.850902"/>
      <trkpt lat="45.361104" lon="-71.851039"/>
      <trkpt lat="45.361154" lon="-71.851251"/>
      <trkpt lat="45.360977" lon="-71.851782"/>
      <trkpt lat="45.361015" lon="-71.851938"/>
      <trkpt lat="45.361115" lon="-71.851983"/>
      <trkpt lat="45.361260" lon="-71.851876"/>
      <trkpt lat="45.361490" lon="-71.851417"/>
      <trkpt lat="45.361531" lon="-71.851157"/>
      <trkpt lat="45.361490" lon="-71.851417"/>
      <trkpt lat="45.361260" lon="-71.851876"/>
      <trkpt lat="45.361115" lon="-71.851983"/>
      <trkpt lat="45.361015" lon="-71.851938"/>
      <trkpt lat="45.360977" lon="-71.851782"/>
      <trkpt lat="45.361154" lon="-71.851251"/>
      <trkpt lat="45.361104" lon="-71.851039"/>
      <trkpt lat="45.361015" lon="-71.850902"/>
      <trkpt lat="45.360864" lon="-71.850924"/>
      <trkpt lat="45.360403" lon="-71.851251"/>
      <trkpt lat="45.360193" lon="-71.851375"/>
      <trkpt lat="45.359884" lon="-71.851409"/>
      <trkpt lat="45.359667" lon="-71.851327"/>
      <trkpt lat="45.359599" lon="-71.851316"/>
      <trkpt lat="45.359483" lon="-71.851283"/>
      <trkpt lat="45.359438" lon="-71.851267"/>
      <trkpt lat="45.359385" lon="-71.851268"/>
      <trkpt lat="45.359334" lon="-71.851320"/>
      <trkpt lat="45.359312" lon="-71.851400"/>
      <trkpt lat="45.359305" lon="-71.851663"/>
      <trkpt lat="45.359298" lon="-71.851710"/>
      <trkpt lat="45.359210" lon="-71.852131"/>
      <trkpt lat="45.359157" lon="-71.852160"/>
      <trkpt lat="45.359069" lon="-71.852457"/>
      <trkpt lat="45.358777" lon="-71.853504"/>
      <trkpt lat="45.358760" lon="-71.853587"/>
      <trkpt lat="45.358755" lon="-71.853672"/>
      <trkpt lat="45.358753" lon="-71.853775"/>
      <trkpt lat="45.358751" lon="-71.854142"/>
      <trkpt lat="45.358750" lon="-71.854308"/>
      <trkpt lat="45.358752" lon="-71.854512"/>
      <trkpt lat="45.358758" lon="-71.854744"/>
      <trkpt lat="45.358767" lon="-71.854893"/>
      <trkpt lat="45.358819" lon="-71.855465"/>
      <trkpt lat="45.358827" lon="-71.855548"/>
      <trkpt lat="45.358842" lon="-71.855716"/>
      <trkpt lat="45.359401" lon="-71.855683"/>
      <trkpt lat="45.359489" lon="-71.855688"/>
      <trkpt lat="45.359602" lon="-71.855705"/>
      <trkpt lat="45.360384" lon="-71.855917"/>
      <trkpt lat="45.360742" lon="-71.856017"/>
      <trkpt lat="45.360384" lon="-71.855917"/>
      <trkpt lat="45.359489" lon="-71.855687"/>
      <trkpt lat="45.359401" lon="-71.855682"/>
      <trkpt lat="45.358819" lon="-71.855464"/>
      <trkpt lat="45.358758" lon="-71.854744"/>
      <trkpt lat="45.358752" lon="-71.854512"/>
      <trkpt lat="45.358751" lon="-71.854142"/>
      <trkpt lat="45.358753" lon="-71.853775"/>
      <trkpt lat="45.358777" lon="-71.853504"/>
      <trkpt lat="45.359069" lon="-71.852457"/>
      <trkpt lat="45.359157" lon="-71.852160"/>
      <trkpt lat="45.359298" lon="-71.851710"/>
      <trkpt lat="45.359305" lon="-71.851663"/>
      <trkpt lat="45.359334" lon="-71.851320"/>
      <trkpt lat="45.359385" lon="-71.851268"/>
      <trkpt lat="45.359438" lon="-71.851266"/>
      <trkpt lat="45.359667" lon="-71.851327"/>
      <trkpt lat="45.359749" lon="-71.851306"/>
      <trkpt lat="45.359916" lon="-71.851237"/>
      <trkpt lat="45.360109" lon="-71.851039"/>
      <trkpt lat="45.360128" lon="-71.850962"/>
      <trkpt lat="45.360184" lon="-71.850473"/>
      <trkpt lat="45.360266" lon="-71.850357"/>
      <trkpt lat="45.360510" lon="-71.850201"/>
      <trkpt lat="45.360843" lon="-71.849797"/>
      <trkpt lat="45.360907" lon="-71.849707"/>
      <trkpt lat="45.361031" lon="-71.849404"/>
      <trkpt lat="45.361099" lon="-71.849314"/>
      <trkpt lat="45.361241" lon="-71.849209"/>
      <trkpt lat="45.361471" lon="-71.849147"/>
      <trkpt lat="45.361777" lon="-71.849228"/>
      <trkpt lat="45.362023" lon="-71.849221"/>
      <trkpt lat="45.362493" lon="-71.849144"/>
      <trkpt lat="45.362678" lon="-71.849146"/>
      <trkpt lat="45.363215" lon="-71.848973"/>
      <trkpt lat="45.363313" lon="-71.848858"/>
      <trkpt lat="45.363678" lon="-71.848421"/>
      <trkpt lat="45.363715" lon="-71.848398"/>
      <trkpt lat="45.363748" lon="-71.848408"/>
      <trkpt lat="45.363950" lon="-71.848530"/>
      <trkpt lat="45.364090" lon="-71.848523"/>
      <trkpt lat="45.364279" lon="-71.848304"/>
      <trkpt lat="45.364320" lon="-71.848283"/>
      <trkpt lat="45.364373" lon="-71.848278"/>
      <trkpt lat="45.364561" lon="-71.848234"/>
      <trkpt lat="45.364637" lon="-71.848150"/>
      <trkpt lat="45.364858" lon="-71.847999"/>
      <trkpt lat="45.364942" lon="-71.847916"/>
      <trkpt lat="45.365002" lon="-71.847858"/>
      <trkpt lat="45.365179" lon="-71.847690"/>
      <trkpt lat="45.365345" lon="-71.847525"/>
      <trkpt lat="45.365428" lon="-71.847438"/>
      <trkpt lat="45.365481" lon="-71.847308"/>
      <trkpt lat="45.365522" lon="-71.846793"/>
      <trkpt lat="45.365536" lon="-71.846624"/>
      <trkpt lat="45.365648" lon="-71.846638"/>
      <trkpt lat="45.365705" lon="-71.846646"/>
      <trkpt lat="45.365852" lon="-71.846673"/>
      <trkpt lat="45.365987" lon="-71.846781"/>
      <trkpt lat="45.366269" lon="-71.846929"/>
      <trkpt lat="45.366374" lon="-71.846949"/>
      <trkpt lat="45.366415" lon="-71.847169"/>
      <trkpt lat="45.366578" lon="-71.847192"/>
      <trkpt lat="45.366640" lon="-71.847184"/>
      <trkpt lat="45.366763" lon="-71.847206"/>
      <trkpt lat="45.366847" lon="-71.847220"/>
      <trkpt lat="45.366816" lon="-71.847606"/>
      <trkpt lat="45.366747" lon="-71.848079"/>
      <trkpt lat="45.366704" lon="-71.848315"/>
      <trkpt lat="45.366414" lon="-71.849632"/>
      <trkpt lat="45.366400" lon="-71.849697"/>
      <trkpt lat="45.366286" lon="-71.850255"/>
      <trkpt lat="45.366085" lon="-71.851295"/>
      <trkpt lat="45.366050" lon="-71.851547"/>
      <trkpt lat="45.366044" lon="-71.851869"/>
      <trkpt lat="45.366070" lon="-71.852143"/>
      <trkpt lat="45.366137" lon="-71.852629"/>
      <trkpt lat="45.366226" lon="-71.853475"/>
      <trkpt lat="45.366259" lon="-71.854083"/>
      <trkpt lat="45.366266" lon="-71.854240"/>
      <trkpt lat="45.366293" lon="-71.855104"/>
      <trkpt lat="45.366295" lon="-71.855165"/>
      <trkpt lat="45.366301" lon="-71.856029"/>
      <trkpt lat="45.366297" lon="-71.856249"/>
      <trkpt lat="45.366293" lon="-71.856383"/>
      <trkpt lat="45.366525" lon="-71.856534"/>
      <trkpt lat="45.366720" lon="-71.856550"/>
      <trkpt lat="45.366949" lon="-71.856565"/>
      <trkpt lat="45.366967" lon="-71.856567"/>
      <trkpt lat="45.367294" lon="-71.856594"/>
      <trkpt lat="45.367641" lon="-71.856621"/>
      <trkpt lat="45.367907" lon="-71.856647"/>
      <trkpt lat="45.367949" lon="-71.856651"/>
      <trkpt lat="45.368051" lon="-71.856662"/>
      <trkpt lat="45.368537" lon="-71.856720"/>
      <trkpt lat="45.368736" lon="-71.856741"/>
      <trkpt lat="45.368951" lon="-71.856766"/>
      <trkpt lat="45.369049" lon="-71.856785"/>
      <trkpt lat="45.369179" lon="-71.856825"/>
      <trkpt lat="45.369394" lon="-71.856942"/>
      <trkpt lat="45.369780" lon="-71.857187"/>
      <trkpt lat="45.370171" lon="-71.857395"/>
      <trkpt lat="45.370274" lon="-71.857464"/>
      <trkpt lat="45.370354" lon="-71.857530"/>
      <trkpt lat="45.370701" lon="-71.857908"/>
      <trkpt lat="45.370816" lon="-71.858032"/>
      <trkpt lat="45.371435" lon="-71.858604"/>
      <trkpt lat="45.371590" lon="-71.858738"/>
      <trkpt lat="45.372138" lon="-71.859211"/>
      <trkpt lat="45.373116" lon="-71.860047"/>
      <trkpt lat="45.374036" lon="-71.860867"/>
      <trkpt lat="45.374504" lon="-71.861273"/>
      <trkpt lat="45.374933" lon="-71.861690"/>
      <trkpt lat="45.375099" lon="-71.861879"/>
      <trkpt lat="45.375607" lon="-71.862578"/>
      <trkpt lat="45.375856" lon="-71.862921"/>
      <trkpt lat="45.376709" lon="-71.864105"/>
      <trkpt lat="45.377514" lon="-71.865272"/>
      <trkpt lat="45.377578" lon="-71.865374"/>
      <trkpt lat="45.377774" lon="-71.865756"/>
      <trkpt lat="45.377903" lon="-71.866090"/>
      <trkpt lat="45.378007" lon="-71.866457"/>
      <trkpt lat="45.378235" lon="-71.867653"/>
      <trkpt lat="45.378272" lon="-71.867820"/>
      <trkpt lat="45.378415" lon="-71.868263"/>
      <trkpt lat="45.378488" lon="-71.868431"/>
      <trkpt lat="45.378573" lon="-71.868600"/>
      <trkpt lat="45.378751" lon="-71.868890"/>
      <trkpt lat="45.378828" lon="-71.869003"/>
      <trkpt lat="45.379024" lon="-71.869235"/>
      <trkpt lat="45.379110" lon="-71.869318"/>
      <trkpt lat="45.379249" lon="-71.869446"/>
      <trkpt lat="45.379923" lon="-71.869925"/>
      <trkpt lat="45.379992" lon="-71.869976"/>
      <trkpt lat="45.380430" lon="-71.870377"/>
      <trkpt lat="45.380547" lon="-71.870530"/>
      <trkpt lat="45.380636" lon="-71.870665"/>
      <trkpt lat="45.380793" lon="-71.870943"/>
      <trkpt lat="45.380835" lon="-71.871027"/>
      <trkpt lat="45.380914" lon="-71.871215"/>
      <trkpt lat="45.381078" lon="-71.871681"/>
      <trkpt lat="45.381133" lon="-71.871881"/>
      <trkpt lat="45.381280" lon="-71.872561"/>
      <trkpt lat="45.381342" lon="-71.872795"/>
      <trkpt lat="45.381420" lon="-71.873047"/>
      <trkpt lat="45.381617" lon="-71.873578"/>
      <trkpt lat="45.382174" lon="-71.874804"/>
      <trkpt lat="45.382864" lon="-71.876299"/>
      <trkpt lat="45.382998" lon="-71.876654"/>
      <trkpt lat="45.383128" lon="-71.877008"/>
      <trkpt lat="45.383403" lon="-71.877719"/>
      <trkpt lat="45.383547" lon="-71.878042"/>
      <trkpt lat="45.384358" lon="-71.879603"/>
      <trkpt lat="45.384573" lon="-71.879945"/>
      <trkpt lat="45.384682" lon="-71.880106"/>
      <trkpt lat="45.385006" lon="-71.880447"/>
      <trkpt lat="45.385182" lon="-71.880606"/>
      <trkpt lat="45.386186" lon="-71.881374"/>
      <trkpt lat="45.386403" lon="-71.881504"/>
      <trkpt lat="45.386837" lon="-71.881729"/>
      <trkpt lat="45.387958" lon="-71.882383"/>
      <trkpt lat="45.388019" lon="-71.882435"/>
      <trkpt lat="45.388237" lon="-71.882657"/>
      <trkpt lat="45.388401" lon="-71.882866"/>
      <trkpt lat="45.388648" lon="-71.883210"/>
      <trkpt lat="45.388868" lon="-71.883479"/>
      <trkpt lat="45.389040" lon="-71.883629"/>
      <trkpt lat="45.389371" lon="-71.883856"/>
      <trkpt lat="45.389332" lon="-71.884023"/>
      <trkpt lat="45.389239" lon="-71.884362"/>
      <trkpt lat="45.390837" lon="-71.885664"/>
      <trkpt lat="45.391245" lon="-71.885925"/>
      <trkpt lat="45.391359" lon="-71.885970"/>
      <trkpt lat="45.391585" lon="-71.886020"/>
      <trkpt lat="45.392400" lon="-71.886042"/>
      <trkpt lat="45.392547" lon="-71.886112"/>
      <trkpt lat="45.392776" lon="-71.886341"/>
      <trkpt lat="45.393727" lon="-71.887152"/>
      <trkpt lat="45.393854" lon="-71.887199"/>
      <trkpt lat="45.393864" lon="-71.887296"/>
      <trkpt lat="45.393911" lon="-71.887708"/>
      <trkpt lat="45.394006" lon="-71.888654"/>
      <trkpt lat="45.394156" lon="-71.889873"/>
      <trkpt lat="45.394203" lon="-71.890387"/>
      <trkpt lat="45.394222" lon="-71.890596"/>
      <trkpt lat="45.394492" lon="-71.890485"/>
      <trkpt lat="45.394534" lon="-71.890523"/>
      <trkpt lat="45.394611" lon="-71.890531"/>
      <trkpt lat="45.395083" lon="-71.890867"/>
      <trkpt lat="45.395319" lon="-71.891028"/>
      <trkpt lat="45.395679" lon="-71.891260"/>
      <trkpt lat="45.395862" lon="-71.891380"/>
      <trkpt lat="45.395900" lon="-71.891579"/>
      <trkpt lat="45.396040" lon="-71.892310"/>
      <trkpt lat="45.396054" lon="-71.892477"/>
      <trkpt lat="45.396283" lon="-71.892991"/>
      <trkpt lat="45.396305" lon="-71.893006"/>
      <trkpt lat="45.396353" lon="-71.893021"/>
      <trkpt lat="45.396728" lon="-71.894023"/>
      <trkpt lat="45.396770" lon="-71.894306"/>
      <trkpt lat="45.396783" lon="-71.894768"/>
      <trkpt lat="45.396855" lon="-71.895065"/>
      <trkpt lat="45.396866" lon="-71.895155"/>
      <trkpt lat="45.396818" lon="-71.895889"/>
      <trkpt lat="45.396818" lon="-71.896332"/>
      <trkpt lat="45.396788" lon="-71.896665"/>
      <trkpt lat="45.396756" lon="-71.897214"/>
      <trkpt lat="45.396789" lon="-71.897252"/>
      <trkpt lat="45.396856" lon="-71.897278"/>
      <trkpt lat="45.397089" lon="-71.897389"/>
      <trkpt lat="45.397107" lon="-71.897424"/>
      <trkpt lat="45.397051" lon="-71.897830"/>
      <trkpt lat="45.397021" lon="-71.898019"/>
      <trkpt lat="45.396976" lon="-71.898512"/>
      <trkpt lat="45.397157" lon="-71.898338"/>
    </trkseg>
  </trk>
</gpx>
